STARLINK-2181
1 27763C 21017AT  21325.15365569  .00004560  00000-0  30558-3 0  3253
2 27763  53.0682  62.4704 0000893  91.3322 118.5662 15.06386564    10
